"dim_locations_key";"address_key";"city_key";"address";"city";"district";"postal_code";"phone"
606;1;300;"47 MySakila Drive";"Lethbridge";"Alberta";"";""
607;2;576;"28 MySQL Boulevard";"Woodridge";"QLD";"";""
608;3;300;"23 Workhaven Lane";"Lethbridge";"Alberta";"";"14033335568"
609;4;576;"1411 Lillydale Drive";"Woodridge";"QLD";"";"6172235589"
610;5;463;"1913 Hanoi Way";"Sasebo";"Nagasaki";"35200";"28303384290"
611;6;449;"1121 Loja Avenue";"San Bernardino";"California";"17886";"838635286649"
612;7;38;"692 Joliet Street";"Athenai";"Attika";"83579";"448477190408"
613;8;349;"1566 Inegl Manor";"Myingyan";"Mandalay";"53561";"705814003527"
614;9;361;"53 Idfu Parkway";"Nantou";"Nantou";"42399";"10655648674"
615;10;295;"1795 Santiago de Compostela Way";"Laredo";"Texas";"18743";"860452626434"
616;11;280;"900 Santiago de Compostela Parkway";"Kragujevac";"Central Serbia";"93896";"716571220373"
617;12;200;"478 Joliet Way";"Hamilton";"Hamilton";"77948";"657282285970"
618;13;329;"613 Korolev Drive";"Masqat";"Masqat";"45844";"380657522649"
619;14;162;"1531 Sal Drive";"Esfahan";"Esfahan";"53628";"648856936185"
620;15;440;"1542 Tarlac Parkway";"Sagamihara";"Kanagawa";"1027";"635297277345"
621;16;582;"808 Bhopal Manor";"Yamuna Nagar";"Haryana";"10672";"465887807014"
622;17;384;"270 Amroha Parkway";"Osmaniye";"Osmaniye";"29610";"695479687538"
623;18;120;"770 Bydgoszcz Avenue";"Citrus Heights";"California";"16266";"517338314235"
624;19;76;"419 Iligan Lane";"Bhopal";"Madhya Pradesh";"72878";"990911107354"
625;20;495;"360 Toulouse Parkway";"Southend-on-Sea";"England";"54308";"949312333307"
626;21;156;"270 Toulon Boulevard";"Elista";"Kalmykia";"81766";"407752414682"
627;22;252;"320 Brest Avenue";"Kaduna";"Kaduna";"43331";"747791594069"
628;23;267;"1417 Lancaster Avenue";"Kimberley";"Northern Cape";"72192";"272572357893"
629;24;327;"1688 Okara Way";"Mardan";"Nothwest Border Prov";"21954";"144453869132"
630;25;525;"262 A Corua (La Corua) Parkway";"Tangail";"Dhaka";"34418";"892775750063"
631;26;443;"28 Charlotte Amalie Street";"Sal";"Rabat-Sal-Zammour-Z";"37551";"161968374323"
632;27;303;"1780 Hino Boulevard";"Liepaja";"Liepaja";"7716";"902731229323"
633;28;128;"96 Tafuna Way";"Crdoba";"Crdoba";"99865";"934730187245"
634;29;472;"934 San Felipe de Puerto Plata Street";"Shikarpur";"Sind";"99780";"196495945706"
635;30;121;"18 Duisburg Boulevard";"Citt del Vaticano";"";"58327";"998009777982"
636;31;138;"217 Botshabelo Place";"Davao";"Southern Mindanao";"49521";"665356572025"
637;32;346;"1425 Shikarpur Manor";"Munger (Monghyr)";"Bihar";"65599";"678220867005"
638;33;474;"786 Aurora Avenue";"Shimonoseki";"Yamaguchi";"65750";"18461860151"
639;34;316;"1668 Anpolis Street";"Lungtan";"Taipei";"50199";"525255540978"
640;35;257;"33 Gorontalo Way";"Kamarhati";"West Bengali";"30348";"745994947458"
641;36;239;"176 Mandaluyong Place";"Jhansi";"Uttar Pradesh";"65213";"627705991774"
642;37;17;"127 Purnea (Purnia) Manor";"Alessandria";"Piemonte";"79388";"911872220378"
643;38;284;"61 Tama Street";"Kurashiki";"Okayama";"94065";"708403338270"
644;39;544;"391 Callao Drive";"Toulouse";"Midi-Pyrnes";"34021";"440512153169"
645;40;31;"334 Munger (Monghyr) Lane";"Arak";"Markazi";"38145";"481183273622"
646;41;362;"1440 Fukuyama Loop";"Nanyang";"Henan";"47929";"912257250465"
647;42;115;"269 Cam Ranh Parkway";"Chisinau";"Chisinau";"34689";"489783829737"
648;43;569;"306 Antofagasta Place";"Vila Velha";"Esprito Santo";"3989";"378318851631"
649;44;353;"671 Graz Street";"Nador";"Oriental";"94399";"680768868518"
650;45;586;"42 Brindisi Place";"Yerevan";"Yerevan";"16744";"42384721397"
651;46;394;"1632 Bislig Avenue";"Pak Kret";"Nonthaburi";"61117";"471675840679"
652;47;167;"1447 Imus Way";"Faaa";"Tahiti";"48942";"539758313890"
653;48;308;"1998 Halifax Drive";"Lipetsk";"Lipetsk";"76022";"177727722820"
654;49;27;"1718 Valencia Street";"Antofagasta";"Antofagasta";"37359";"675292816413"
655;50;343;"46 Pjatigorsk Lane";"Moscow";"Moscow (City)";"23616";"262076994845"
656;51;247;"686 Garland Manor";"Juazeiro do Norte";"Cear";"52535";"69493378813"
657;52;367;"909 Garland Manor";"Niznekamsk";"Tatarstan";"69367";"705800322606"
658;53;237;"725 Isesaki Place";"Jedda";"Mekka";"74428";"876295323994"
659;54;379;"115 Hidalgo Parkway";"Omdurman";"Khartum";"80168";"307703950263"
660;55;171;"1135 Izumisano Parkway";"Fontana";"California";"48150";"171822533480"
661;56;1;"939 Probolinggo Loop";"A Corua (La Corua)";"Galicia";"4166";"680428310138"
662;57;355;"17 Kabul Boulevard";"Nagareyama";"Chiba";"38594";"697760867968"
663;58;227;"1964 Allappuzha (Alleppey) Street";"Iwakuni";"Yamaguchi";"48980";"920811325222"
664;59;49;"1697 Kowloon and New Kowloon Loop";"Balaiha";"Moskova";"57807";"499352017190"
665;60;397;"1668 Saint Louis Place";"Papeete";"Tahiti";"39072";"347487831378"
666;61;560;"943 Tokat Street";"Vaduz";"Vaduz";"45428";"889318963672"
667;62;282;"1114 Liepaja Street";"Kuching";"Sarawak";"69226";"212869228936"
668;63;350;"1213 Ranchi Parkway";"Mysore";"Karnataka";"94352";"800024380485"
669;64;231;"81 Hodeida Way";"Jaipur";"Rajasthan";"55561";"250767749542"
670;65;56;"915 Ponce Place";"Basel";"Basel-Stadt";"83980";"1395251317"
671;66;441;"1717 Guadalajara Lane";"Saint Louis";"Missouri";"85505";"914090181665"
672;67;306;"1214 Hanoi Way";"Lincoln";"Nebraska";"67055";"491001136577"
673;68;139;"1966 Amroha Avenue";"Daxian";"Sichuan";"70385";"333489324603"
674;69;105;"698 Otsu Street";"Cayenne";"Cayenne";"71110";"409983924481"
675;70;321;"1150 Kimchon Manor";"Malm";"Skne ln";"96109";"663449333709"
676;71;579;"1586 Guaruj Place";"Xiangtan";"Hunan";"5135";"947233365992"
677;72;475;"57 Arlington Manor";"Shivapuri";"Madhya Pradesh";"48960";"990214419142"
678;73;63;"1031 Daugavpils Parkway";"Bchar";"Bchar";"59025";"107137400143"
679;74;13;"1124 Buenaventura Drive";"al-Hawiya";"Mekka";"6856";"407733804223"
680;75;61;"492 Cam Ranh Street";"Baybay";"Eastern Visayas";"50805";"565018274456"
681;76;517;"89 Allappuzha (Alleppey) Manor";"Taguig";"National Capital Reg";"75444";"255800440636"
682;77;114;"1947 Poos de Caldas Boulevard";"Chiayi";"Chiayi";"60951";"427454485876"
683;78;431;"1206 Dos Quebradas Place";"Rio Claro";"So Paulo";"20207";"241832790687"
684;79;108;"1551 Rampur Lane";"Changhwa";"Changhwa";"72394";"251164340471"
685;80;402;"602 Paarl Street";"Pavlodar";"Pavlodar";"98889";"896314772871"
686;81;30;"1692 Ede Loop";"Araatuba";"So Paulo";"9223";"918711376618"
687;82;425;"936 Salzburg Lane";"Rae Bareli";"Uttar Pradesh";"96709";"875756771675"
688;83;256;"586 Tete Way";"Kamakura";"Kanagawa";"1079";"18581624103"
689;84;217;"1888 Kabul Drive";"Ife";"Oyo & Osun";"20936";"701457319790"
690;85;319;"320 Baiyin Parkway";"Mahajanga";"Mahajanga";"37307";"223664661973"
691;86;479;"927 Baha Blanca Parkway";"Simferopol";"Krim";"9495";"821972242086"
692;87;497;"929 Tallahassee Loop";"Springs";"Gauteng";"74671";"800716535041"
693;88;40;"125 Citt del Vaticano Boulevard";"Atlixco";"Puebla";"67912";"48417642933"
694;89;88;"1557 Ktahya Boulevard";"Bradford";"England";"88002";"720998247660"
695;90;489;"870 Ashqelon Loop";"Songkhla";"Songkhla";"84931";"135117278909"
696;91;480;"1740 Portoviejo Avenue";"Sincelejo";"Sucre";"29932";"198123170793"
697;92;113;"1942 Ciparay Parkway";"Cheju";"Cheju";"82624";"978987363654"
698;93;289;"1926 El Alto Avenue";"La Plata";"Buenos Aires";"75543";"846225459260"
699;94;332;"1952 Chatsworth Drive";"Meixian";"Guangdong";"25958";"991562402283"
700;95;53;"1370 Le Mans Avenue";"Bandar Seri Begawan";"Brunei and Muara";"52163";"345679835036"
701;96;183;"984 Effon-Alaiye Avenue";"Goinia";"Gois";"17119";"132986892228"
702;97;592;"832 Nakhon Sawan Manor";"Zalantun";"Inner Mongolia";"49021";"275595571388"
703;98;82;"152 Kitwe Parkway";"Bislig";"Caraga";"53182";"835433605312"
704;99;399;"1697 Tanauan Lane";"Pathankot";"Punjab";"22870";"4764773857"
705;100;41;"1308 Arecibo Way";"Augusta-Richmond County";"Georgia";"30695";"6171054059"
706;101;534;"1599 Plock Drive";"Tete";"Tete";"71986";"817248913162"
707;102;12;"669 Firozabad Loop";"al-Ayn";"Abu Dhabi";"92265";"412903167998"
708;103;268;"588 Vila Velha Manor";"Kimchon";"Kyongsangbuk";"51540";"333339908719"
709;104;238;"1913 Kamakura Place";"Jelets";"Lipetsk";"97287";"942570536750"
710;105;2;"733 Mandaluyong Place";"Abha";"Asir";"77459";"196568435814"
711;106;34;"659 Vaduz Drive";"Ashdod";"Ha Darom";"49708";"709935135487"
712;107;220;"1177 Jelets Way";"Ilorin";"Kwara & Kogi";"3305";"484292626944"
713;108;543;"1386 Yangor Avenue";"Toulon";"Provence-Alpes-Cte";"80720";"449216226468"
714;109;173;"454 Nakhon Sawan Boulevard";"Funafuti";"Funafuti";"76383";"963887147572"
715;110;225;"1867 San Juan Bautista Tuxtepec Avenue";"Ivanovo";"Ivanovo";"78311";"547003310357"
716;111;334;"1532 Dzerzinsk Way";"Merlo";"Buenos Aires";"9599";"330838016880"
717;112;213;"1002 Ahmadnagar Manor";"Huixquilucan";"Mxico";"93026";"371490777743"
718;113;273;"682 Junan Way";"Klerksdorp";"North West";"30418";"622255216127"
719;114;159;"804 Elista Drive";"Enshi";"Hubei";"61069";"379804592943"
720;115;102;"1378 Alvorada Avenue";"Caracas";"Distrito Federal";"75834";"272234298332"
721;116;292;"793 Cam Ranh Avenue";"Lancaster";"California";"87057";"824370924746"
722;117;132;"1079 Tel Aviv-Jaffa Boulevard";"Cuman";"Sucre";"10885";"358178933857"
723;118;148;"442 Rae Bareli Place";"Duisburg";"Nordrhein-Westfalen";"24321";"886636413768"
724;119;365;"1107 Nakhon Sawan Avenue";"Nezahualcyotl";"Mxico";"75149";"867546627903"
725;120;403;"544 Malm Parkway";"Pemalang";"Central Java";"63502";"386759646229"
726;121;176;"1967 Sincelejo Place";"Gandhinagar";"Gujarat";"73644";"577812616052"
727;122;185;"333 Goinia Way";"Grand Prairie";"Texas";"78625";"909029256431"
728;123;476;"1987 Coacalco de Berriozbal Loop";"Shubra al-Khayma";"al-Qalyubiya";"96065";"787654415858"
729;124;147;"241 Mosul Lane";"Dos Quebradas";"Risaralda";"76157";"765345144779"
730;125;164;"211 Chiayi Drive";"Etawah";"Uttar Pradesh";"58186";"665993880048"
731;126;305;"1175 Tanauan Way";"Lima";"Lima";"64615";"937222955822"
732;127;566;"117 Boa Vista Way";"Varanasi (Benares)";"Uttar Pradesh";"6804";"677976133614"
733;128;281;"848 Tafuna Manor";"Ktahya";"Ktahya";"45142";"614935229095"
734;129;85;"569 Baicheng Lane";"Boksburg";"Gauteng";"60304";"490211944645"
735;130;410;"1666 Qomsheh Drive";"Po";"So Paulo";"66255";"582835362905"
736;131;484;"801 Hagonoy Drive";"Smolensk";"Smolensk";"8439";"237426099212"
737;132;236;"1050 Garden Grove Avenue";"Jastrzebie-Zdrj";"Slaskie";"4999";"973047364353"
738;133;302;"1854 Tieli Street";"Liaocheng";"Shandong";"15819";"509492324775"
739;134;190;"758 Junan Lane";"guas Lindas de Gois";"Gois";"82639";"935448624185"
740;135;345;"1752 So Leopoldo Parkway";"Mukateve";"Taka-Karpatia";"14014";"252265130067"
741;136;87;"898 Belm Manor";"Botshabelo";"Free State";"49757";"707169393853"
742;137;541;"261 Saint Louis Way";"Torren";"Coahuila de Zaragoza";"83401";"321944036800"
743;138;421;"765 Southampton Drive";"Qalyub";"al-Qalyubiya";"4285";"23712411567"
744;139;417;"943 Johannesburg Avenue";"Pune";"Maharashtra";"5892";"90921003005"
745;140;211;"788 Atinsk Street";"Hubli-Dharwad";"Karnataka";"81691";"146497509724"
746;141;29;"1749 Daxian Place";"Apeldoorn";"Gelderland";"11044";"963369996279"
747;142;207;"1587 Sullana Lane";"Hohhot";"Inner Mongolia";"85769";"468060467018"
748;143;542;"1029 Dzerzinsk Manor";"Touliu";"Ynlin";"57519";"33173584456"
749;144;123;"1666 Beni-Mellal Place";"Clarksville";"Tennessee";"13377";"9099941466"
750;145;172;"928 Jaffna Loop";"Fukuyama";"Hiroshima";"93762";"581852137991"
751;146;149;"483 Ljubertsy Parkway";"Dundee";"Scotland";"60562";"581174211853"
752;147;266;"374 Bat Yam Boulevard";"Kilis";"Kilis";"97700";"923261616249"
753;148;340;"1027 Songkhla Manor";"Molodetno";"Minsk";"30861";"563660187896"
754;149;491;"999 Sanaa Loop";"Soshanguve";"Gauteng";"3439";"918032330119"
755;150;499;"879 Newcastle Way";"Sterling Heights";"Michigan";"90732";"206841104594"
756;151;555;"1337 Lincoln Parkway";"Urawa";"Saitama";"99457";"597815221267"
757;152;442;"1952 Pune Lane";"Saint-Denis";"Saint-Denis";"92150";"354615066969"
758;153;94;"782 Mosul Street";"Brockton";"Massachusetts";"25545";"885899703621"
759;154;202;"781 Shimonoseki Drive";"Hidalgo";"Michoacn de Ocampo";"95444";"632316273199"
760;155;291;"1560 Jelets Boulevard";"Laiwu";"Shandong";"77777";"189446090264"
761;156;354;"1963 Moscow Place";"Nagaon";"Assam";"64863";"761379480249"
762;157;232;"456 Escobar Way";"Jakarta";"Jakarta Raya";"36061";"719202533520"
763;158;590;"798 Cianjur Avenue";"Yuncheng";"Shanxi";"76990";"499408708580"
764;159;72;"185 Novi Sad Place";"Bern";"Bern";"41778";"904253967161"
765;160;381;"1367 Yantai Manor";"Ondo";"Ondo & Ekiti";"21294";"889538496300"
766;161;420;"1386 Nakhon Sawan Boulevard";"Pyongyang";"Pyongyang-si";"53502";"368899174225"
767;162;187;"369 Papeete Way";"Greensboro";"North Carolina";"66639";"170117068815"
768;163;307;"1440 Compton Place";"Linz";"North Austria";"81037";"931059836497"
769;164;310;"1623 Baha Blanca Manor";"Ljubertsy";"Moskova";"81511";"149981248346"
770;165;533;"97 Shimoga Avenue";"Tel Aviv-Jaffa";"Tel Aviv";"44660";"177167004331"
771;166;297;"1740 Le Mans Loop";"Le Mans";"Pays de la Loire";"22853";"168476538960"
772;167;253;"1287 Xiangfan Boulevard";"Kakamigahara";"Gifu";"57844";"819416131190"
773;168;529;"842 Salzburg Lane";"Tarsus";"Adana";"3313";"697151428760"
774;169;199;"154 Tallahassee Loop";"Hami";"Xinxiang";"62250";"935508855935"
775;170;304;"710 San Felipe del Progreso Avenue";"Lilongwe";"Lilongwe";"76901";"843801144113"
776;171;107;"1540 Wroclaw Drive";"Chandrapur";"Maharashtra";"62686";"182363341674"
777;172;240;"475 Atinsk Way";"Jinchang";"Gansu";"59571";"201705577290"
778;173;407;"1294 Firozabad Drive";"Pingxiang";"Jiangxi";"70618";"161801569569"
779;174;550;"1877 Ezhou Lane";"Udaipur";"Rajasthan";"63337";"264541743403"
780;175;223;"316 Uruapan Street";"Ipoh";"Perak";"58194";"275788967899"
781;176;58;"29 Pyongyang Loop";"Batman";"Batman";"47753";"734780743462"
782;177;186;"1010 Klerksdorp Way";"Graz";"Steiermark";"6802";"493008546874"
783;178;373;"1848 Salala Boulevard";"Ocumare del Tuy";"Miranda";"25220";"48265851133"
784;179;18;"431 Xiangtan Avenue";"Allappuzha (Alleppey)";"Kerala";"4854";"230250973122"
785;180;483;"757 Rustenburg Avenue";"Skikda";"Skikda";"89668";"506134035434"
786;181;330;"146 Johannesburg Way";"Matamoros";"Tamaulipas";"54132";"953689007081"
787;182;456;"1891 Rizhao Boulevard";"Santa Brbara dOeste";"So Paulo";"47288";"391065549876"
788;183;270;"1089 Iwatsuki Avenue";"Kirovo-Tepetsk";"Kirov";"35109";"866092335135"
789;184;405;"1410 Benin City Parkway";"Pereira";"Risaralda";"29747";"104150372603"
790;185;333;"682 Garden Grove Place";"Memphis";"Tennessee";"67497";"72136330362"
791;186;126;"533 al-Ayn Boulevard";"Compton";"California";"8862";"662227486184"
792;187;317;"1839 Szkesfehrvr Parkway";"Luzinia";"Gois";"55709";"947468818183"
793;188;438;"741 Ambattur Manor";"s-Hertogenbosch";"Noord-Brabant";"43310";"302590383819"
794;189;467;"927 Barcelona Street";"Shahr-e Kord";"Chaharmahal va Bakht";"65121";"951486492670"
795;190;195;"435 0 Way";"Haldia";"West Bengali";"74750";"760171523969"
796;191;506;"140 Chiayi Parkway";"Sumy";"Sumy";"38982";"855863906434"
797;192;62;"1166 Changhwa Street";"Bayugan";"Caraga";"58852";"650752094490"
798;193;383;"891 Novi Sad Manor";"Oshawa";"Ontario";"5379";"247646995453"
799;194;513;"605 Rio Claro Parkway";"Tabora";"Tabora";"49348";"352469351088"
800;195;369;"1077 San Felipe de Puerto Plata Place";"Novoterkassk";"Rostov-na-Donu";"65387";"812824036424"
801;196;169;"9 San Miguel de Tucumn Manor";"Firozabad";"Uttar Pradesh";"90845";"956188728558"
802;197;271;"447 Surakarta Loop";"Kisumu";"Nyanza";"10428";"940830176580"
803;198;204;"345 Oshawa Boulevard";"Hino";"Tokyo-to";"32114";"104491201771"
804;199;477;"1792 Valle de la Pascua Place";"Siegen";"Nordrhein-Westfalen";"15540";"419419591240"
805;200;325;"1074 Binzhou Manor";"Mannheim";"Baden-Wrttemberg";"36490";"331132568928"
806;201;109;"817 Bradford Loop";"Changzhou";"Jiangsu";"89459";"264286442804"
807;202;218;"955 Bamenda Way";"Ikerre";"Ondo & Ekiti";"1545";"768481779568"
808;203;194;"1149 A Corua (La Corua) Boulevard";"Haiphong";"Haiphong";"95824";"470884141195"
809;204;35;"387 Mwene-Ditu Drive";"Ashgabat";"Ahal";"8073";"764477681869"
810;205;575;"68 Molodetno Manor";"Witten";"Nordrhein-Westfalen";"4662";"146640639760"
811;206;77;"642 Nador Drive";"Bhusawal";"Maharashtra";"3924";"369050085652"
812;207;184;"1688 Nador Lane";"Gorontalo";"Sulawesi Utara";"61613";"652218196731"
813;208;557;"1215 Pyongyang Parkway";"Usak";"Usak";"25238";"646237101779"
814;209;122;"1679 Antofagasta Street";"Ciudad del Este";"Alto Paran";"86599";"905903574913"
815;210;83;"1304 s-Hertogenbosch Way";"Blumenau";"Santa Catarina";"10925";"90336226227"
816;211;371;"850 Salala Loop";"Nuuk";"Kitaa";"10800";"403404780639"
817;212;51;"624 Oshawa Boulevard";"Balurghat";"West Bengali";"89959";"49677664184"
818;213;74;"43 Dadu Avenue";"Bhilwara";"Rajasthan";"4855";"95666951770"
819;214;7;"751 Lima Loop";"Aden";"Aden";"99405";"756460337785"
820;215;174;"1333 Haldia Street";"Fuyu";"Jilin";"82161";"408304391718"
821;216;65;"660 Jedda Boulevard";"Bellevue";"Washington";"25053";"168758068397"
822;217;518;"1001 Miyakonojo Lane";"Taizz";"Taizz";"67924";"584316724815"
823;218;508;"226 Brest Manor";"Sunnyvale";"California";"2299";"785881412500"
824;219;498;"1229 Valencia Parkway";"Stara Zagora";"Haskovo";"99124";"352679173732"
825;220;28;"1201 Qomsheh Manor";"Aparecida de Goinia";"Gois";"21464";"873492228462"
826;221;448;"866 Shivapuri Manor";"Sambhal";"Uttar Pradesh";"22474";"778502731092"
827;222;251;"1168 Najafabad Parkway";"Kabul";"Kabol";"40301";"886649065861"
828;223;567;"1244 Allappuzha (Alleppey) Place";"Vicente Lpez";"Buenos Aires";"20657";"991802825778"
829;224;593;"1842 Luzinia Boulevard";"Zanzibar";"Zanzibar West";"94420";"706878974831"
830;225;511;"1926 Gingoog Street";"Syrakusa";"Sisilia";"22824";"469738825391"
831;226;235;"810 Palghat (Palakkad) Boulevard";"Jaroslavl";"Jaroslavl";"73431";"516331171356"
832;227;324;"1820 Maring Parkway";"Mandi Bahauddin";"Punjab";"88307";"99760893676"
833;228;243;"60 Poos de Caldas Street";"Jodhpur";"Rajasthan";"82338";"963063788669"
834;229;22;"1014 Loja Manor";"Ambattur";"Tamil Nadu";"66851";"460795526514"
835;230;37;"201 Effon-Alaiye Way";"Asuncin";"Asuncin";"64344";"684192903087"
836;231;439;"430 Alessandria Loop";"Saarbrcken";"Saarland";"47446";"669828224459"
837;232;406;"754 Valencia Place";"Phnom Penh";"Phnom Penh";"87911";"594319417514"
838;233;26;"356 Olomouc Manor";"Anpolis";"Gois";"93323";"22326410776"
839;234;86;"1256 Bislig Boulevard";"Botosani";"Botosani";"50598";"479007229460"
840;235;559;"954 Kimchon Place";"Uttarpara-Kotrung";"West Bengali";"42420";"541327526474"
841;236;596;"885 Yingkou Manor";"Zaria";"Kaduna";"31390";"588964509072"
842;237;216;"1736 Cavite Place";"Idfu";"Qina";"98775";"431770603551"
843;238;233;"346 Skikda Parkway";"Jalib al-Shuyukh";"Hawalli";"90628";"630424482919"
844;239;96;"98 Stara Zagora Boulevard";"Buenaventura";"Valle";"76448";"610173756082"
845;240;527;"1479 Rustenburg Boulevard";"Tanza";"Southern Tagalog";"18727";"727785483194"
846;241;357;"647 A Corua (La Corua) Street";"Naju";"Chollanam";"36971";"792557457753"
847;242;473;"1964 Gijn Manor";"Shimoga";"Karnataka";"14408";"918119601885"
848;243;118;"47 Syktyvkar Lane";"Ciomas";"West Java";"22236";"63937119031"
849;244;226;"1148 Saarbrcken Parkway";"Iwaki";"Fukushima";"1921";"137773001988"
850;245;578;"1103 Bilbays Parkway";"Xiangfan";"Hubei";"87660";"279979529227"
851;246;422;"1246 Boksburg Parkway";"Qinhuangdao";"Hebei";"28349";"890283544295"
852;247;454;"1483 Pathankot Street";"San Miguel de Tucumn";"Tucumn";"37288";"686015532180"
853;248;294;"582 Papeete Loop";"Lapu-Lapu";"Central Visayas";"27722";"569868543137"
854;249;553;"300 Junan Street";"Uijongbu";"Kyonggi";"81314";"890289150158"
855;250;328;"829 Grand Prairie Way";"Maring";"Paran";"6461";"741070712873"
856;251;124;"1473 Changhwa Parkway";"Coacalco de Berriozbal";"Mxico";"75933";"266798132374"
857;252;520;"1309 Weifang Street";"Tallahassee";"Florida";"57338";"435785045362"
858;253;535;"1760 Oshawa Manor";"Tianjin";"Tianjin";"38140";"56257502250"
859;254;390;"786 Stara Zagora Way";"Oyo";"Oyo & Osun";"98332";"716256596301"
860;255;198;"1966 Tonghae Street";"Halle/Saale";"Anhalt Sachsen";"36481";"567359279425"
861;256;312;"1497 Yuzhou Drive";"London";"England";"3433";"246810237916"
862;258;338;"752 Ondo Loop";"Miyakonojo";"Miyazaki";"32474";"134673576619"
863;259;413;"1338 Zalantun Lane";"Poos de Caldas";"Minas Gerais";"45403";"840522972766"
864;260;192;"127 Iwakuni Boulevard";"Hagonoy";"Central Luzon";"20777";"987442542471"
865;261;342;"51 Laredo Avenue";"Monywa";"Sagaing";"68146";"884536620568"
866;262;64;"771 Yaound Manor";"Beira";"Sofala";"86768";"245477603573"
867;263;460;"532 Toulon Street";"Santiago de los Caballeros";"Santiago";"69517";"46871694740"
868;264;197;"1027 Banjul Place";"Halisahar";"West Bengali";"50390";"538241037443"
869;265;136;"1158 Mandi Bahauddin Parkway";"Datong";"Shanxi";"98484";"276555730211"
870;266;548;"862 Xintai Lane";"Tuguegarao";"Cagayan Valley";"30065";"265153400632"
871;267;414;"816 Cayenne Parkway";"Portoviejo";"Manab";"93629";"282874611748"
872;268;323;"1831 Nam Dinh Loop";"Mandaluyong";"National Capital Reg";"51990";"322888976727"
873;269;203;"446 Kirovo-Tepetsk Lane";"Higashiosaka";"Osaka";"19428";"303967439816"
874;270;378;"682 Halisahar Place";"Olomouc";"Severn Morava";"20536";"475553436330"
875;271;447;"1587 Loja Manor";"Salzburg";"Salzburg";"5410";"621625204422"
876;272;298;"1762 Paarl Parkway";"Lengshuijiang";"Hunan";"53928";"192459639410"
877;273;395;"1519 Ilorin Place";"Palghat (Palakkad)";"Kerala";"49298";"357445645426"
878;274;446;"920 Kumbakonam Loop";"Salinas";"California";"75090";"685010736240"
879;275;255;"906 Goinia Way";"Kalisz";"Wielkopolskie";"83565";"701767622697"
880;276;283;"1675 Xiangfan Manor";"Kumbakonam";"Tamil Nadu";"11763";"271149517630"
881;277;584;"85 San Felipe de Puerto Plata Drive";"Yantai";"Shandong";"46063";"170739645687"
882;278;445;"144 South Hill Loop";"Salamanca";"Guanajuato";"2012";"45387294817"
883;279;263;"1884 Shikarpur Avenue";"Karnal";"Haryana";"85548";"959949395183"
884;280;404;"1980 Kamjanets-Podilskyi Street";"Peoria";"Illinois";"89502";"874337098891"
885;281;573;"1944 Bamenda Way";"Warren";"Michigan";"24645";"75975221996"
886;282;374;"556 Baybay Manor";"Ogbomosho";"Oyo & Osun";"55802";"363982224739"
887;283;222;"457 Tongliao Loop";"Inegl";"Bursa";"56254";"880756161823"
888;284;514;"600 Bradford Street";"Tabriz";"East Azerbaidzan";"96204";"117592274996"
889;285;389;"1006 Santa Brbara dOeste Manor";"Owo";"Ondo & Ekiti";"36229";"85059738746"
890;286;175;"1308 Sumy Loop";"Fuzhou";"Fujian";"30657";"583021225407"
891;287;411;"1405 Chisinau Place";"Ponce";"Ponce";"8160";"62781725285"
892;288;277;"226 Halifax Street";"Korla";"Xinxiang";"58492";"790651020929"
893;289;69;"1279 Udine Parkway";"Benin City";"Edo & Delta";"75860";"195003555232"
894;290;386;"1336 Benin City Drive";"Otsu";"Shiga";"46044";"341242939532"
895;291;152;"1155 Liaocheng Place";"Effon-Alaiye";"Oyo & Osun";"22650";"558236142492"
896;292;522;"1993 Tabuk Lane";"Tambaram";"Tamil Nadu";"64221";"648482415405"
897;293;563;"86 Higashiosaka Lane";"Valle de Santiago";"Guanajuato";"33768";"957128697225"
898;294;279;"1912 Allende Manor";"Kowloon and New Kowloon";"Kowloon and New Kowl";"58124";"172262454487"
899;295;562;"544 Tarsus Boulevard";"Valle de la Pascua";"Gurico";"53145";"892523334"
900;296;433;"1936 Cuman Avenue";"Roanoke";"Virginia";"61195";"976798660411"
901;297;470;"1192 Tongliao Street";"Sharja";"Sharja";"19065";"350970907017"
902;298;146;"44 Najafabad Way";"Donostia-San Sebastin";"Baskimaa";"61391";"96604821070"
903;299;140;"32 Pudukkottai Lane";"Dayton";"Ohio";"38834";"967274728547"
904;300;274;"661 Chisinau Lane";"Kolpino";"Pietari";"8856";"816436065431"
905;301;400;"951 Stara Zagora Manor";"Patiala";"Punjab";"98573";"429925609431"
906;302;9;"922 Vila Velha Loop";"Ahmadnagar";"Maharashtra";"4085";"510737228015"
907;303;387;"898 Jining Lane";"Oulu";"Pohjois-Pohjanmaa";"40070";"161643343536"
908;304;205;"1635 Kuwana Boulevard";"Hiroshima";"Hiroshima";"52137";"710603868323"
909;305;398;"41 El Alto Parkway";"Parbhani";"Maharashtra";"56883";"51917807050"
910;306;254;"1883 Maikop Lane";"Kaliningrad";"Kaliningrad";"68469";"96110042435"
911;307;536;"1908 Gaziantep Place";"Tiefa";"Liaoning";"58979";"108053751300"
912;308;455;"687 Alessandria Parkway";"Sanaa";"Sanaa";"57587";"407218522294"
913;309;99;"827 Yuncheng Drive";"Callao";"Callao";"79047";"504434452842"
914;310;33;"913 Coacalco de Berriozbal Loop";"Arlington";"Texas";"42141";"262088367001"
915;311;507;"715 So Bernardo do Campo Lane";"Sungai Petani";"Kedah";"84804";"181179321332"
916;312;25;"1354 Siegen Street";"Angra dos Reis";"Rio de Janeiro";"80184";"573441801529"
917;313;262;"1191 Sungai Petani Boulevard";"Kansas City";"Missouri";"9668";"983259819766"
918;314;91;"1224 Huejutla de Reyes Boulevard";"Brescia";"Lombardia";"70923";"806016930576"
919;315;215;"543 Bergamo Avenue";"Ibirit";"Minas Gerais";"59686";"103602195112"
920;316;286;"746 Joliet Lane";"Kursk";"Kursk";"94878";"688485191923"
921;317;515;"780 Kimberley Way";"Tabuk";"Tabuk";"17032";"824396883951"
922;318;166;"1774 Yaound Place";"Ezhou";"Hubei";"91400";"613124286867"
923;319;490;"1957 Yantai Lane";"Sorocaba";"So Paulo";"59255";"704948322302"
924;320;57;"1542 Lubumbashi Boulevard";"Bat Yam";"Tel Aviv";"62472";"508800331065"
925;321;336;"651 Pathankot Loop";"Miraj";"Maharashtra";"59811";"139378397418"
926;322;545;"1359 Zhoushan Parkway";"Trshavn";"Streymoyar";"29763";"46568045367"
927;323;97;"1769 Iwaki Lane";"Bydgoszcz";"Kujawsko-Pomorskie";"25787";"556100547674"
928;324;451;"1145 Vilnius Manor";"San Felipe del Progreso";"Mxico";"73170";"674805712553"
929;325;516;"1892 Nabereznyje Telny Lane";"Tafuna";"Tutuila";"28396";"478229987054"
930;326;81;"470 Boksburg Street";"Birgunj";"Central";"97960";"908029859266"
931;327;45;"1427 A Corua (La Corua) Place";"Baha Blanca";"Buenos Aires";"85799";"972574862516"
932;328;130;"479 San Felipe del Progreso Avenue";"Cuautla";"Morelos";"54949";"869051782691"
933;329;591;"867 Benin City Avenue";"Yuzhou";"Henan";"78543";"168884817145"
934;330;89;"981 Kumbakonam Place";"Braslia";"Distrito Federal";"87611";"829116184079"
935;331;269;"1016 Iwakuni Street";"Kingstown";"St George";"49833";"961370847344"
936;332;5;"663 Baha Blanca Parkway";"Adana";"Adana";"33463";"834418779292"
937;333;119;"1860 Taguig Loop";"Ciparay";"West Java";"59550";"38158430589"
938;334;234;"1816 Bydgoszcz Loop";"Jamalpur";"Dhaka";"64308";"965273813662"
939;335;42;"587 Benguela Manor";"Aurora";"Illinois";"91590";"165450987037"
940;336;457;"430 Kumbakonam Drive";"Santa F";"Santa F";"28814";"105470691550"
941;337;143;"1838 Tabriz Lane";"Dhaka";"Dhaka";"1195";"38988715447"
942;338;48;"431 Szkesfehrvr Avenue";"Baku";"Baki";"57828";"119501405123"
943;339;505;"503 Sogamoso Loop";"Sumqayit";"Sumqayit";"49812";"834626715837"
944;340;492;"507 Smolensk Loop";"Sousse";"Sousse";"22971";"80303246192"
945;341;427;"1920 Weifang Avenue";"Rampur";"Uttar Pradesh";"15643";"869507847714"
946;342;382;"124 al-Manama Way";"Onomichi";"Hiroshima";"52368";"647899404952"
947;343;392;"1443 Mardan Street";"Paarl";"Western Cape";"31483";"231383037471"
948;344;581;"1909 Benguela Lane";"Xinxiang";"Henan";"19913";"624138001031"
949;345;201;"68 Ponce Parkway";"Hanoi";"Hanoi";"85926";"870635127812"
950;346;151;"1217 Konotop Avenue";"Ede";"Gelderland";"504";"718917251754"
951;347;84;"1293 Nam Dinh Way";"Boa Vista";"Roraima";"71583";"697656479977"
952;348;335;"785 Vaduz Street";"Mexicali";"Baja California";"36170";"895616862749"
953;349;370;"1516 Escobar Drive";"Nukualofa";"Tongatapu";"46069";"64536069371"
954;350;453;"1628 Nagareyama Lane";"San Lorenzo";"Central";"60079";"20064292617"
955;351;320;"1157 Nyeri Loop";"Maikop";"Adygea";"56380";"262744791493"
956;352;137;"1673 Tangail Drive";"Daugavpils";"Daugavpils";"26857";"627924259271"
957;353;209;"381 Kabul Way";"Hsichuh";"Taipei";"87272";"55477302294"
958;354;221;"953 Hodeida Street";"Imus";"Southern Tagalog";"18841";"53912826864"
959;355;531;"469 Nakhon Sawan Street";"Teboksary";"Tuvassia";"58866";"689199636560"
960;356;597;"1378 Beira Loop";"Zeleznogorsk";"Krasnojarsk";"40792";"840957664136"
961;357;52;"1641 Changhwa Place";"Bamenda";"Nord-Ouest";"37636";"256546485220"
962;358;393;"1698 Southport Loop";"Pachuca de Soto";"Hidalgo";"49009";"754358349853"
963;359;461;"519 Nyeri Manor";"Santo Andr";"So Paulo";"37650";"764680915323"
964;360;331;"619 Hunuco Avenue";"Matsue";"Shimane";"81508";"142596392389"
965;361;464;"45 Aparecida de Goinia Place";"Satna";"Madhya Pradesh";"7431";"650496654258"
966;362;90;"482 Kowloon and New Kowloon Manor";"Bratislava";"Bratislava";"97056";"738968474939"
967;363;429;"604 Bern Place";"Ranchi";"Jharkhand";"5373";"620719383725"
968;364;20;"1623 Kingstown Drive";"Almirante Brown";"Buenos Aires";"91299";"296394569728"
969;365;32;"1009 Zanzibar Lane";"Arecibo";"Arecibo";"64875";"102396298916"
970;366;585;"114 Jalib al-Shuyukh Manor";"Yaound";"Centre";"60440";"845378657301"
971;367;66;"1163 London Parkway";"Belm";"Par";"6066";"675120358494"
972;368;372;"1658 Jastrzebie-Zdrj Loop";"Nyeri";"Central";"96584";"568367775448"
973;369;188;"817 Laredo Avenue";"Guadalajara";"Jalisco";"77449";"151249681135"
974;370;377;"1565 Tangail Manor";"Okinawa";"Okinawa";"45750";"634445428822"
975;371;50;"1912 Emeishan Drive";"Balikesir";"Balikesir";"33050";"99883471275"
976;372;8;"230 Urawa Drive";"Adoni";"Andhra Pradesh";"2738";"166898395731"
977;373;356;"1922 Miraj Way";"Najafabad";"Esfahan";"13203";"320471479776"
978;374;250;"433 Florencia Street";"Jurez";"Chihuahua";"91330";"561729882725"
979;375;191;"1049 Matamoros Parkway";"Gulbarga";"Karnataka";"69640";"960505250340"
980;376;98;"1061 Ede Avenue";"Cabuyao";"Southern Tagalog";"57810";"333390595558"
981;377;415;"154 Oshawa Manor";"Probolinggo";"East Java";"72771";"440365973660"
982;378;523;"1191 Tandil Drive";"Tanauan";"Southern Tagalog";"6362";"45554316010"
983;379;572;"1133 Rizhao Avenue";"Vitria de Santo Anto";"Pernambuco";"2800";"600264533987"
984;380;348;"1519 Santiago de los Caballeros Loop";"Mwene-Ditu";"East Kasai";"22025";"409315295763"
985;381;285;"1618 Olomouc Manor";"Kurgan";"Kurgan";"26385";"96846695220"
986;382;265;"220 Hidalgo Drive";"Kermanshah";"Kermanshah";"45298";"342720754566"
987;383;471;"686 Donostia-San Sebastin Lane";"Shenzhen";"Guangdong";"97390";"71857599858"
988;384;73;"97 Mogiljov Lane";"Bhavnagar";"Gujarat";"89294";"924815207181"
989;385;549;"1642 Charlotte Amalie Drive";"Tychy";"Slaskie";"75442";"821476736117"
990;386;493;"1368 Maracabo Boulevard";"South Hill";"";"32716";"934352415130"
991;387;322;"401 Sucre Boulevard";"Manchester";"New Hampshire";"25007";"486395999608"
992;388;360;"368 Hunuco Boulevard";"Namibe";"Namibe";"17165";"106439158941"
993;389;210;"500 Lincoln Parkway";"Huaian";"Jiangsu";"95509";"550306965159"
994;390;521;"102 Chapra Drive";"Tama";"Ibaragi";"14073";"776031833752"
995;391;258;"1793 Meixian Place";"Kamjanets-Podilskyi";"Hmelnytskyi";"33535";"619966287415"
996;392;315;"514 Ife Way";"Lubumbashi";"Shaba";"69973";"900235712074"
997;393;104;"717 Changzhou Lane";"Cavite";"Southern Tagalog";"21615";"426255288071"
998;394;157;"753 Ilorin Avenue";"Emeishan";"Sichuan";"3656";"464511145118"
999;395;358;"1337 Mit Ghamr Avenue";"Nakhon Sawan";"Nakhon Sawan";"29810";"175283210378"
1000;396;229;"767 Pyongyang Drive";"Izumisano";"Osaka";"83536";"667736124769"
1001;397;6;"614 Pak Kret Street";"Addis Abeba";"Addis Abeba";"27796";"47808359842"
1002;398;278;"954 Lapu-Lapu Way";"Korolev";"Moskova";"8816";"737229003916"
1003;399;181;"331 Bydgoszcz Parkway";"Gijn";"Asturia";"966";"537374465982"
1004;400;15;"1152 Citrus Heights Manor";"al-Qadarif";"al-Qadarif";"5239";"765957414528"
1005;401;228;"168 Cianjur Manor";"Iwatsuki";"Saitama";"73824";"679095087143"
1006;402;39;"616 Hagonoy Avenue";"Atinsk";"Krasnojarsk";"46043";"604177838256"
1007;403;44;"1190 0 Place";"Bag";"Rio Grande do Sul";"10417";"841876514789"
1008;404;375;"734 Bchar Place";"Okara";"Punjab";"30586";"280578750435"
1009;405;135;"530 Lausanne Lane";"Dallas";"Texas";"11067";"775235029633"
1010;406;276;"454 Patiala Lane";"Koriyama";"Fukushima";"13496";"794553031307"
1011;407;92;"1346 Mysore Drive";"Brest";"Bretagne";"61507";"516647474029"
1012;408;564;"990 Etawah Loop";"Valparai";"Tamil Nadu";"79940";"206169448769"
1013;409;380;"1266 Laredo Parkway";"Omiya";"Saitama";"7664";"1483365694"
1014;410;524;"88 Nagaon Manor";"Tandil";"Buenos Aires";"86868";"779461480495"
1015;411;111;"264 Bhimavaram Manor";"Charlotte Amalie";"St Thomas";"54749";"302526949177"
1016;412;437;"1639 Saarbrcken Drive";"Rustenburg";"North West";"9827";"328494873422"
1017;413;230;"692 Amroha Drive";"Jaffna";"Northern";"35575";"359478883004"
1018;414;141;"1936 Lapu-Lapu Parkway";"Deba Habe";"Bauchi & Gombe";"7122";"653436985797"
1019;415;430;"432 Garden Grove Street";"Richmond Hill";"Ontario";"65630";"615964523510"
1020;416;117;"1445 Carmen Parkway";"Cianjur";"West Java";"70809";"598912394463"
1021;417;208;"791 Salinas Street";"Hoshiarpur";"Punjab";"40509";"129953030512"
1022;418;71;"126 Acua Parkway";"Berhampore (Baharampur)";"West Bengali";"58888";"480039662421"
1023;419;19;"397 Sunnyvale Avenue";"Allende";"Guanajuato";"55566";"680851640676"
1024;420;23;"992 Klerksdorp Loop";"Amersfoort";"Utrecht";"33711";"855290087237"
1025;421;134;"966 Arecibo Loop";"Dadu";"Sind";"94018";"15273765306"
1026;422;16;"289 Santo Andr Manor";"al-Qatif";"al-Sharqiya";"72410";"214976066017"
1027;423;450;"437 Chungho Drive";"San Felipe de Puerto Plata";"Puerto Plata";"59489";"491271355190"
1028;424;264;"1948 Bayugan Parkway";"Katihar";"Bihar";"60622";"987306329957"
1029;425;155;"1866 al-Qatif Avenue";"El Monte";"California";"89420";"546793516940"
1030;426;416;"1661 Abha Drive";"Pudukkottai";"Tamil Nadu";"14400";"270456873752"
1031;427;293;"1557 Cape Coral Parkway";"Laohekou";"Hubei";"46875";"368284120423"
1032;428;465;"1727 Matamoros Place";"Sawhaj";"Sawhaj";"78813";"129673677866"
1033;429;468;"1269 Botosani Manor";"Shanwei";"Guangdong";"47394";"736517327853"
1034;430;452;"355 Vitria de Santo Anto Way";"San Juan Bautista Tuxtepec";"Oaxaca";"81758";"548003849552"
1035;431;418;"1596 Acua Parkway";"Purnea (Purnia)";"Jharkhand";"70425";"157133457169"
1036;432;189;"259 Ipoh Drive";"Guaruj";"So Paulo";"64964";"419009857119"
1037;433;510;"1823 Hoshiarpur Lane";"Syktyvkar";"Komi";"33191";"307133768620"
1038;434;547;"1404 Taguig Drive";"Tsuyama";"Okayama";"87212";"572068624538"
1039;435;150;"740 Udaipur Lane";"Dzerzinsk";"Nizni Novgorod";"33505";"497288595103"
1040;436;501;"287 Cuautla Boulevard";"Sucre";"Chuquisaca";"72736";"82619513349"
1041;437;364;"1766 Almirante Brown Street";"Newcastle";"KwaZulu-Natal";"63104";"617567598243"
1042;438;351;"596 Huixquilucan Place";"Naala-Porto";"Nampula";"65892";"342709348083"
1043;439;391;"1351 Aparecida de Goinia Parkway";"Ozamis";"Northern Mindanao";"41775";"959834530529"
1044;440;249;"722 Bradford Lane";"Junan";"Shandong";"90920";"746251338300"
1045;441;565;"983 Santa F Way";"Vancouver";"British Colombia";"47472";"145720452260"
1046;442;290;"1245 Ibirit Way";"La Romana";"La Romana";"40926";"331888642162"
1047;443;272;"1836 Korla Parkway";"Kitwe";"Copperbelt";"55405";"689681677428"
1048;444;70;"231 Kaliningrad Place";"Bergamo";"Lombardia";"57833";"575081026569"
1049;445;144;"495 Bhimavaram Lane";"Dhule (Dhulia)";"Maharashtra";"3";"82088937724"
1050;446;59;"1924 Shimonoseki Drive";"Batna";"Batna";"52625";"406784385440"
1051;447;540;"105 Dzerzinsk Manor";"Tongliao";"Inner Mongolia";"48570";"240776414296"
1052;448;486;"614 Denizli Parkway";"So Leopoldo";"Rio Grande do Sul";"29444";"876491807547"
1053;449;530;"1289 Belm Boulevard";"Tartu";"Tartumaa";"88306";"237368926031"
1054;450;161;"203 Tambaram Street";"Escobar";"Buenos Aires";"73942";"411549550611"
1055;451;554;"1704 Tambaram Manor";"Uluberia";"West Bengali";"2834";"39463554936"
1056;452;352;"207 Cuernavaca Loop";"Nabereznyje Telny";"Tatarstan";"52671";"782900030287"
1057;453;160;"319 Springs Loop";"Erlangen";"Baijeri";"99552";"72524459905"
1058;454;481;"956 Nam Dinh Manor";"Sirjan";"Kerman";"21872";"474047727727"
1059;455;509;"1947 Paarl Way";"Surakarta";"Central Java";"23636";"834061016202"
1060;456;154;"814 Simferopol Loop";"El Fuerte";"Sinaloa";"48745";"524567129902"
1061;457;3;"535 Ahmadnagar Manor";"Abu Dhabi";"Abu Dhabi";"41136";"985109775584"
1062;458;326;"138 Caracas Boulevard";"Maracabo";"Zulia";"16790";"974433019532"
1063;459;556;"251 Florencia Drive";"Uruapan";"Michoacn de Ocampo";"16119";"118011831565"
1064;460;153;"659 Gatineau Boulevard";"El Alto";"La Paz";"28587";"205524798287"
1065;461;600;"1889 Valparai Way";"Ziguinchor";"Ziguinchor";"75559";"670370974122"
1066;462;435;"1485 Bratislava Place";"Rockford";"Illinois";"83183";"924663855568"
1067;463;532;"935 Aden Boulevard";"Tegal";"Central Java";"64709";"335052544020"
1068;464;423;"76 Kermanshah Manor";"Qomsheh";"Esfahan";"23343";"762361821578"
1069;465;170;"734 Tanshui Avenue";"Florencia";"Caquet";"70664";"366776723320"
1070;466;182;"118 Jaffna Loop";"Gingoog";"Northern Mindanao";"10447";"325526730021"
1071;467;558;"1621 Tongliao Avenue";"Usolje-Sibirskoje";"Irkutsk";"22173";"209342540247"
1072;468;196;"1844 Usak Avenue";"Halifax";"Nova Scotia";"84461";"164414772677"
1073;469;428;"1872 Toulon Loop";"Rancagua";"OHiggins";"7939";"928809465153"
1074;470;595;"1088 Ibirit Place";"Zapopan";"Jalisco";"88502";"49084281333"
1075;471;145;"1322 Mosul Parkway";"Dongying";"Shandong";"95400";"268053970382"
1076;472;129;"1447 Chatsworth Place";"Cuauhtmoc";"Chihuahua";"41545";"769370126331"
1077;473;78;"1257 Guadalajara Street";"Bijapur";"Karnataka";"33599";"195337700615"
1078;474;388;"1469 Plock Lane";"Ourense (Orense)";"Galicia";"95835";"622884741180"
1079;475;206;"434 Ourense (Orense) Manor";"Hodeida";"Hodeida";"14122";"562370137426"
1080;476;244;"270 Tambaram Parkway";"Johannesburg";"Gauteng";"9668";"248446668735"
1081;477;359;"1786 Salinas Place";"Nam Dinh";"Nam Ha";"66546";"206060652238"
1082;478;301;"1078 Stara Zagora Drive";"Lhokseumawe";"Aceh";"69221";"932992626595"
1083;479;158;"1854 Okara Boulevard";"Emmen";"Drenthe";"42123";"131912793873"
1084;480;385;"421 Yaound Street";"ostka";"Sumy";"11363";"726875628268"
1085;481;179;"1153 Allende Way";"Gatineau";"Qubec";"20336";"856872225376"
1086;482;500;"808 Naala-Porto Parkway";"Stockport";"England";"41060";"553452430707"
1087;483;36;"632 Usolje-Sibirskoje Parkway";"Ashqelon";"Ha Darom";"73085";"667648979883"
1088;484;11;"98 Pyongyang Boulevard";"Akron";"Ohio";"88749";"191958435142"
1089;485;180;"984 Novoterkassk Loop";"Gaziantep";"Gaziantep";"28165";"435118527255"
1090;486;347;"64 Korla Street";"Mwanza";"Mwanza";"25145";"510383179153"
1091;487;125;"1785 So Bernardo do Campo Street";"Coatzacoalcos";"Veracruz";"71182";"684529463244"
1092;488;142;"698 Jelets Boulevard";"Denizli";"Denizli";"2596";"975185523021"
1093;489;587;"1297 Alvorada Parkway";"Yinchuan";"Ningxia";"11839";"508348602835"
1094;490;469;"1909 Dayton Avenue";"Shaoguan";"Guangdong";"88513";"702955450528"
1095;491;4;"1789 Saint-Denis Parkway";"Acua";"Coahuila de Zaragoza";"8268";"936806643983"
1096;492;408;"185 Mannheim Lane";"Pjatigorsk";"Stavropol";"23661";"589377568313"
1097;493;288;"184 Mandaluyong Street";"La Paz";"Baja California Sur";"94239";"488425406814"
1098;494;376;"591 Sungai Petani Drive";"Okayama";"Okayama";"46400";"37247325001"
1099;495;487;"656 Matamoros Drive";"Sogamoso";"Boyac";"19489";"17305839123"
1100;496;337;"775 ostka Drive";"Mit Ghamr";"al-Daqahliya";"22358";"171973024401"
1101;497;261;"1013 Tabuk Boulevard";"Kanchrapara";"West Bengali";"96203";"158399646978"
1102;498;504;"319 Plock Parkway";"Sultanbeyli";"Istanbul";"26101";"854259976812"
1103;499;434;"1954 Kowloon and New Kowloon Way";"Robamba";"Chimborazo";"63667";"898559280434"
1104;500;47;"362 Rajkot Lane";"Baiyin";"Gansu";"98030";"962020153680"
1105;501;432;"1060 Tandil Lane";"Rizhao";"Shandong";"72349";"211256301880"
1106;502;589;"1515 Korla Way";"York";"England";"57197";"959467760895"
1107;503;444;"1416 San Juan Bautista Tuxtepec Avenue";"Salala";"Zufar";"50592";"144206758053"
1108;504;93;"1 Valle de Santiago Avenue";"Brindisi";"Apulia";"86208";"465897838272"
1109;505;318;"519 Brescia Parkway";"Madiun";"East Java";"69504";"793996678771"
1110;506;314;"414 Mandaluyong Street";"Lublin";"Lubelskie";"16370";"52709222667"
1111;507;478;"1197 Sokoto Boulevard";"Siliguri (Shiliguri)";"West Bengali";"87687";"868602816371"
1112;508;552;"496 Celaya Drive";"Ueda";"Nagano";"90797";"759586584889"
1113;509;245;"786 Matsue Way";"Joliet";"Illinois";"37469";"111177206479"
1114;510;519;"48 Maracabo Place";"Talavera";"Central Luzon";"1570";"82671830126"
1115;511;412;"1152 al-Qatif Lane";"Pontianak";"Kalimantan Barat";"44816";"131370665218"
1116;512;163;"1269 Ipoh Avenue";"Eskisehir";"Eskisehir";"54674";"402630109080"
1117;513;568;"758 Korolev Parkway";"Vijayawada";"Andhra Pradesh";"75474";"441628280920"
1118;514;110;"1747 Rustenburg Place";"Chapra";"Bihar";"51369";"442673923363"
1119;515;259;"886 Tonghae Place";"Kamyin";"Volgograd";"19450";"711928348157"
1120;516;502;"1574 Goinia Boulevard";"Suihua";"Heilongjiang";"39529";"59634255214"
1121;517;312;"548 Uruapan Street";"London";"Ontario";"35653";"879347453467"
1122;519;583;"962 Tama Loop";"Yangor";"";"65952";"282667506728"
1123;520;594;"1778 Gijn Manor";"Zaoyang";"Hubei";"35156";"288910576761"
1124;521;127;"568 Dhule (Dhulia) Loop";"Coquimbo";"Coquimbo";"92568";"602101369463"
1125;522;60;"1768 Udine Loop";"Battambang";"Battambang";"32347";"448876499197"
1126;523;116;"608 Birgunj Parkway";"Chungho";"Taipei";"400";"627425618482"
1127;524;482;"680 A Corua (La Corua) Manor";"Sivas";"Sivas";"49806";"158326114853"
1128;525;224;"1949 Sanya Street";"Isesaki";"Gumma";"61244";"132100972047"
1129;526;366;"617 Klerksdorp Place";"Nha Trang";"Khanh Hoa";"94707";"574973479129"
1130;527;588;"1993 0 Loop";"Yingkou";"Liaoning";"41214";"25865528181"
1131;528;458;"1176 Southend-on-Sea Manor";"Santa Rosa";"Southern Tagalog";"81651";"236679267178"
1132;529;571;"600 Purnea (Purnia) Avenue";"Vinh";"Nghe An";"18043";"638409958875"
1133;530;419;"1003 Qinhuangdao Street";"Purwakarta";"West Java";"25972";"35533115997"
1134;531;551;"1986 Sivas Place";"Udine";"Friuli-Venezia Giuli";"95775";"182059202712"
1135;532;101;"1427 Tabuk Place";"Cape Coral";"Florida";"31342";"214756839122"
1136;533;339;"556 Asuncin Way";"Mogiljov";"Mogiljov";"35364";"338244023543"
1137;534;67;"486 Ondo Parkway";"Benguela";"Benguela";"35202";"105882218332"
1138;535;75;"635 Brest Manor";"Bhimavaram";"Andhra Pradesh";"40899";"80593242951"
1139;536;165;"166 Jinchang Street";"Ezeiza";"Buenos Aires";"86760";"717566026669"
1140;537;287;"958 Sagamihara Lane";"Kuwana";"Mie";"88408";"427274926505"
1141;538;100;"1817 Livorno Way";"Cam Ranh";"Khanh Hoa";"79401";"478380208348"
1142;539;80;"1332 Gaziantep Lane";"Binzhou";"Shandong";"22813";"383353187467"
1143;540;24;"949 Allende Lane";"Amroha";"Uttar Pradesh";"67521";"122981120653"
1144;541;363;"195 Ilorin Street";"NDjamna";"Chari-Baguirmi";"49250";"8912935608"
1145;542;539;"193 Bhusawal Place";"Tonghae";"Kang-won";"9750";"745267607502"
1146;543;42;"43 Vilnius Manor";"Aurora";"Colorado";"79814";"484500282381"
1147;544;46;"183 Haiphong Street";"Baicheng";"Jilin";"69953";"488600270038"
1148;545;561;"163 Augusta-Richmond County Loop";"Valencia";"Carabobo";"33030";"754579047924"
1149;546;436;"191 Jos Azueta Parkway";"Ruse";"Ruse";"13629";"932156667696"
1150;547;309;"379 Lublin Parkway";"Livorno";"Toscana";"74568";"921960450089"
1151;548;396;"1658 Cuman Loop";"Pangkal Pinang";"Sumatera Selatan";"51309";"784907335610"
1152;549;68;"454 Qinhuangdao Drive";"Beni-Mellal";"Tadla-Azilal";"25866";"786270036240"
1153;550;485;"1715 Okayama Street";"So Bernardo do Campo";"So Paulo";"55676";"169352919175"
1154;551;275;"182 Nukualofa Drive";"Konotop";"Sumy";"15414";"426346224043"
1155;552;462;"390 Wroclaw Way";"Sanya";"Hainan";"5753";"357593328658"
1156;553;260;"1421 Quilmes Lane";"Kanazawa";"Ishikawa";"19151";"135407755975"
1157;554;528;"947 Trshavn Place";"Tarlac";"Central Luzon";"841";"50898428626"
1158;555;459;"1764 Jalib al-Shuyukh Parkway";"Santiago de Compostela";"Galicia";"77642";"84794532510"
1159;556;599;"346 Cam Ranh Avenue";"Zhoushan";"Zhejiang";"39976";"978430786151"
1160;557;21;"1407 Pachuca de Soto Place";"Alvorada";"Rio Grande do Sul";"26284";"380077794770"
1161;558;193;"904 Clarksville Drive";"Haining";"Zhejiang";"52234";"955349440539"
1162;559;368;"1917 Kumbakonam Parkway";"Novi Sad";"Vojvodina";"11892";"698182547686"
1163;560;426;"1447 Imus Place";"Rajkot";"Gujarat";"12905";"62127829280"
1164;561;112;"1497 Fengshan Drive";"Chatsworth";"KwaZulu-Natal";"63022";"368738360376"
1165;562;496;"869 Shikarpur Way";"Southport";"England";"57380";"590764256785"
1166;563;570;"1059 Yuncheng Avenue";"Vilnius";"Vilna";"47498";"107092893983"
1167;564;577;"505 Madiun Boulevard";"Wroclaw";"Dolnoslaskie";"97271";"970638808606"
1168;565;79;"1741 Hoshiarpur Boulevard";"Bilbays";"al-Sharqiya";"22372";"855066328617"
1169;566;43;"1229 Varanasi (Benares) Manor";"Avellaneda";"Buenos Aires";"40195";"817740355461"
1170;567;178;"1894 Boa Vista Way";"Garland";"Texas";"77464";"239357986667"
1171;568;488;"1342 Sharja Way";"Sokoto";"Sokoto & Kebbi & Zam";"93655";"946114054231"
1172;569;95;"1342 Abha Boulevard";"Bucuresti";"Bukarest";"10714";"997453607116"
1173;570;580;"415 Pune Avenue";"Xintai";"Shandong";"44274";"203202500108"
1174;571;214;"1746 Faaa Way";"Hunuco";"Huanuco";"32515";"863080561151"
1175;572;538;"539 Hami Way";"Tokat";"Tokat";"52196";"525518075499"
1176;573;466;"1407 Surakarta Manor";"Serpuhov";"Moskova";"33224";"324346485054"
1177;574;55;"502 Mandi Bahauddin Parkway";"Barcelona";"Anzotegui";"15992";"618156722572"
1178;575;299;"1052 Pathankot Avenue";"Leshan";"Sichuan";"77397";"128499386727"
1179;576;341;"1351 Sousse Lane";"Monclova";"Coahuila de Zaragoza";"37815";"203804046132"
1180;577;409;"1501 Pangkal Pinang Avenue";"Plock";"Mazowieckie";"943";"770864062795"
1181;578;133;"1405 Hagonoy Avenue";"Czestochowa";"Slaskie";"86587";"867287719310"
1182;579;598;"521 San Juan Bautista Tuxtepec Place";"Zhezqazghan";"Qaraghandy";"95093";"844018348565"
1183;580;10;"923 Tangail Boulevard";"Akishima";"Tokyo-to";"33384";"315528269898"
1184;581;131;"186 Skikda Lane";"Cuernavaca";"Morelos";"89422";"14465669789"
1185;582;168;"1568 Celaya Parkway";"Fengshan";"Kaohsiung";"34750";"278669994384"
1186;583;526;"1489 Kakamigahara Lane";"Tanshui";"Taipei";"98883";"29341849811"
1187;584;103;"1819 Alessandria Loop";"Carmen";"Campeche";"53829";"377633994405"
1188;585;344;"1208 Tama Loop";"Mosul";"Ninawa";"73605";"954786054144"
1189;586;219;"951 Springs Lane";"Iligan";"Central Mindanao";"96115";"165164761435"
1190;587;246;"760 Miyakonojo Drive";"Jos Azueta";"Guerrero";"64682";"294449058179"
1191;588;212;"966 Asuncin Way";"Huejutla de Reyes";"Hidalgo";"62703";"995527378381"
1192;589;494;"1584 Ljubertsy Lane";"Southampton";"England";"22954";"285710089439"
1193;590;54;"247 Jining Parkway";"Banjul";"Banjul";"53446";"170115379190"
1194;591;424;"773 Dallas Manor";"Quilmes";"Buenos Aires";"12664";"914466027044"
1195;592;546;"1923 Stara Zagora Lane";"Tsaotun";"Nantou";"95179";"182178609211"
1196;593;106;"1402 Zanzibar Boulevard";"Celaya";"Guanajuato";"71102";"387448063440"
1197;594;574;"1464 Kursk Parkway";"Weifang";"Shandong";"17381";"338758048786"
1198;595;311;"1074 Sanaa Parkway";"Loja";"Loja";"22474";"154124128457"
1199;596;14;"1759 Niznekamsk Avenue";"al-Manama";"al-Manama";"39414";"864392582257"
1200;597;248;"32 Liaocheng Way";"Juiz de Fora";"Minas Gerais";"1944";"410877354933"
1201;598;512;"42 Fontana Avenue";"Szkesfehrvr";"Fejr";"14684";"437829801725"
1202;599;177;"1895 Zhezqazghan Drive";"Garden Grove";"California";"36693";"137809746111"
1203;600;241;"1837 Kaduna Parkway";"Jining";"Inner Mongolia";"82580";"640843562301"
1204;601;242;"844 Bucuresti Place";"Jinzhou";"Liaoning";"36603";"935952366111"
1205;602;401;"1101 Bucuresti Boulevard";"Patras";"West Greece";"97661";"199514580428"
1206;603;503;"1103 Quilmes Boulevard";"Sullana";"Piura";"52137";"644021380889"
1207;604;296;"1331 Usak Boulevard";"Lausanne";"Vaud";"61960";"145308717464"
1208;605;537;"1325 Fukuyama Street";"Tieli";"Heilongjiang";"27107";"288241215394"
